{
  "norad_id": 45447,
  "name": "ONEWEB-0046",
  "history": [
    {
      "epoch": "2026-04-11T18:24:12.003840Z",
      "apogee_km": 1218.9798777604346,
      "perigee_km": 1216.3836269108851,
      "latitude_deg": 1.9664040919196305e-06,
      "longitude_deg": -81.76329246054573,
      "height_km": 1220.4566195578777,
      "semi_major_axis_km": 7595.818752335659,
      "eccentricity": 0.0001709,
      "inclination_deg": 87.8926,
      "raan_deg": 34.2683,
      "arg_perigee_deg": 85.0723,
      "mean_anomaly_deg": 275.06,
      "mean_motion_rev_day": 13.1141719
    },
    {
      "epoch": "2026-04-13T05:11:40.741728Z",
      "apogee_km": 1218.9900494796166,
      "perigee_km": 1216.3813401333118,
      "latitude_deg": 1.6518792474260334e-06,
      "longitude_deg": 114.65003700234799,
      "height_km": 1220.4652338751425,
      "semi_major_axis_km": 7595.822694806464,
      "eccentricity": 0.00017172,
      "inclination_deg": 87.8927,
      "raan_deg": 33.9802,
      "arg_perigee_deg": 85.3025,
      "mean_anomaly_deg": 274.8299,
      "mean_motion_rev_day": 13.11416169
    },
    {
      "epoch": "2026-04-14T19:38:53.811168Z",
      "apogee_km": 1218.986565439407,
      "perigee_km": 1216.3933501160227,
      "latitude_deg": 1.184398240535855e-05,
      "longitude_deg": -104.0516514124993,
      "height_km": 1220.475338142445,
      "semi_major_axis_km": 7595.826957777715,
      "eccentricity": 0.0001707,
      "inclination_deg": 87.8923,
      "raan_deg": 33.6622,
      "arg_perigee_deg": 85.5328,
      "mean_anomaly_deg": 274.5995,
      "mean_motion_rev_day": 13.11415065
    },
    {
      "epoch": "2026-04-15T19:27:10.643904Z",
      "apogee_km": 1218.9955256771027,
      "perigee_km": 1216.3931938532469,
      "latitude_deg": 3.6844712223590165e-05,
      "longitude_deg": -102.2963082960897,
      "height_km": 1220.4850536061942,
      "semi_major_axis_km": 7595.831359765174,
      "eccentricity": 0.0001713,
      "inclination_deg": 87.8927,
      "raan_deg": 33.4653,
      "arg_perigee_deg": 85.7837,
      "mean_anomaly_deg": 274.3487,
      "mean_motion_rev_day": 13.11413925
    },
    {
      "epoch": "2026-04-16T08:16:14.988288Z",
      "apogee_km": 1218.9984200065373,
      "perigee_km": 1216.3839359476779,
      "latitude_deg": 4.279786836028268e-05,
      "longitude_deg": 64.80317999576583,
      "height_km": 1220.483741514434,
      "semi_major_axis_km": 7595.828177977108,
      "eccentricity": 0.0001721,
      "inclination_deg": 87.8927,
      "raan_deg": 33.3593,
      "arg_perigee_deg": 85.8861,
      "mean_anomaly_deg": 274.2464,
      "mean_motion_rev_day": 13.11414749
    },
    {
      "epoch": "2026-04-17T17:13:52.151808Z",
      "apogee_km": 1219.0169306419048,
      "perigee_km": 1216.3658346198,
      "latitude_deg": -4.186250635851813e-05,
      "longitude_deg": -71.22800140821172,
      "height_km": 1220.4908963980479,
      "semi_major_axis_km": 7595.8283826308525,
      "eccentricity": 0.00017451,
      "inclination_deg": 87.8927,
      "raan_deg": 33.0866,
      "arg_perigee_deg": 86.2454,
      "mean_anomaly_deg": 273.8873,
      "mean_motion_rev_day": 13.11414696
    },
    {
      "epoch": "2026-04-18T11:32:32.734752Z",
      "apogee_km": 1219.0191412598033,
      "perigee_km": 1216.359994294955,
      "latitude_deg": -2.2249319872455453e-06,
      "longitude_deg": 13.199287503373258,
      "height_km": 1220.4887414480863,
      "semi_major_axis_km": 7595.826567777379,
      "eccentricity": 0.00017504,
      "inclination_deg": 87.8928,
      "raan_deg": 32.935,
      "arg_perigee_deg": 86.2427,
      "mean_anomaly_deg": 273.8901,
      "mean_motion_rev_day": 13.11415166
    },
    {
      "epoch": "2026-04-19T13:10:41.532384Z",
      "apogee_km": 1219.021899058661,
      "perigee_km": 1216.3527263951682,
      "latitude_deg": 2.0445422032341753e-05,
      "longitude_deg": -12.602293117409095,
      "height_km": 1220.488083009794,
      "semi_major_axis_km": 7595.824312726914,
      "eccentricity": 0.0001757,
      "inclination_deg": 87.8929,
      "raan_deg": 32.7229,
      "arg_perigee_deg": 86.3261,
      "mean_anomaly_deg": 273.8068,
      "mean_motion_rev_day": 13.1141575
    },
    {
      "epoch": "2026-04-20T12:58:58.256256Z",
      "apogee_km": 1219.080368890196,
      "perigee_km": 1216.2939167616414,
      "latitude_deg": 2.940085254507019e-05,
      "longitude_deg": -10.846599406054036,
      "height_km": 1220.4928567384611,
      "semi_major_axis_km": 7595.824142825919,
      "eccentricity": 0.00018342,
      "inclination_deg": 87.8928,
      "raan_deg": 32.5259,
      "arg_perigee_deg": 86.6903,
      "mean_anomaly_deg": 273.4435,
      "mean_motion_rev_day": 13.11415794
    },
    {
      "epoch": "2026-04-21T12:47:14.669952Z",
      "apogee_km": 1219.0934830100332,
      "perigee_km": 1216.2648010787361,
      "latitude_deg": 8.052926295509864e-06,
      "longitude_deg": -9.089611512573697,
      "height_km": 1220.4871444316225,
      "semi_major_axis_km": 7595.816142044385,
      "eccentricity": 0.0001862,
      "inclination_deg": 87.893,
      "raan_deg": 32.3289,
      "arg_perigee_deg": 86.8343,
      "mean_anomaly_deg": 273.2998,
      "mean_motion_rev_day": 13.11417866
    },
    {
      "epoch": "2026-04-22T18:05:07.188288Z",
      "apogee_km": 1219.0521989986937,
      "perigee_km": 1216.3101086451652,
      "latitude_deg": -3.2056150809551634e-05,
      "longitude_deg": -90.00396532707539,
      "height_km": 1220.4828584667102,
      "semi_major_axis_km": 7595.81815382193,
      "eccentricity": 0.0001805,
      "inclination_deg": 87.8931,
      "raan_deg": 32.0866,
      "arg_perigee_deg": 86.4661,
      "mean_anomaly_deg": 273.6673,
      "mean_motion_rev_day": 13.11417345
    },
    {
      "epoch": "2026-04-23T12:23:47.354784Z",
      "apogee_km": 1219.055643241295,
      "perigee_km": 1216.2924391007382,
      "latitude_deg": 6.465439485252847e-06,
      "longitude_deg": -5.574838344683204,
      "height_km": 1220.4778464266437,
      "semi_major_axis_km": 7595.811041171017,
      "eccentricity": 0.00018189,
      "inclination_deg": 87.8933,
      "raan_deg": 31.9351,
      "arg_perigee_deg": 86.5815,
      "mean_anomaly_deg": 273.5521,
      "mean_motion_rev_day": 13.11419187
    },
    {
      "epoch": "2026-04-24T19:31:31.698048Z",
      "apogee_km": 1219.0491726246128,
      "perigee_km": 1216.2994889228721,
      "latitude_deg": 6.3616947297312065e-06,
      "longitude_deg": -114.04552549719354,
      "height_km": 1220.4806197641783,
      "semi_major_axis_km": 7595.811330773742,
      "eccentricity": 0.000181,
      "inclination_deg": 87.8933,
      "raan_deg": 31.6776,
      "arg_perigee_deg": 86.6677,
      "mean_anomaly_deg": 273.4658,
      "mean_motion_rev_day": 13.11419112
    },
    {
      "epoch": "2026-04-25T19:19:47.947584Z",
      "apogee_km": 1219.063847976944,
      "perigee_km": 1216.28530010316,
      "latitude_deg": -1.1968753189603432e-05,
      "longitude_deg": -112.287749424597,
      "height_km": 1220.4809886527974,
      "semi_major_axis_km": 7595.811574040052,
      "eccentricity": 0.0001829,
      "inclination_deg": 87.8937,
      "raan_deg": 31.4807,
      "arg_perigee_deg": 86.7087,
      "mean_anomaly_deg": 273.425,
      "mean_motion_rev_day": 13.11419049
    },
    {
      "epoch": "2026-04-26T19:08:04.223040Z",
      "apogee_km": 1219.073972226156,
      "perigee_km": 1216.2778015862268,
      "latitude_deg": 5.401470817149385e-05,
      "longitude_deg": -110.53007791637529,
      "height_km": 1220.4836654317949,
      "semi_major_axis_km": 7595.812886906191,
      "eccentricity": 0.00018406,
      "inclination_deg": 87.8938,
      "raan_deg": 31.2838,
      "arg_perigee_deg": 86.7867,
      "mean_anomaly_deg": 273.3472,
      "mean_motion_rev_day": 13.11418709
    },
    {
      "epoch": "2026-04-27T18:56:20.546016Z",
      "apogee_km": 1219.0915519631708,
      "perigee_km": 1216.262870750862,
      "latitude_deg": 7.49378168824178e-06,
      "longitude_deg": -108.77280873728311,
      "height_km": 1220.4857613301976,
      "semi_major_axis_km": 7595.814211357017,
      "eccentricity": 0.0001862,
      "inclination_deg": 87.8936,
      "raan_deg": 31.0867,
      "arg_perigee_deg": 86.8563,
      "mean_anomaly_deg": 273.2778,
      "mean_motion_rev_day": 13.11418366
    },
    {
      "epoch": "2026-04-28T18:44:36.960576Z",
      "apogee_km": 1219.0996021460269,
      "perigee_km": 1216.2587668930164,
      "latitude_deg": 1.8911989360593243e-05,
      "longitude_deg": -107.01572011726617,
      "height_km": 1220.4841335727444,
      "semi_major_axis_km": 7595.816184519522,
      "eccentricity": 0.000187,
      "inclination_deg": 87.8935,
      "raan_deg": 30.8898,
      "arg_perigee_deg": 86.725,
      "mean_anomaly_deg": 273.4092,
      "mean_motion_rev_day": 13.11417855
    },
    {
      "epoch": "2026-04-29T18:32:53.492640Z",
      "apogee_km": 1219.0986441317145,
      "perigee_km": 1216.26692251649,
      "latitude_deg": -9.322851480230804e-06,
      "longitude_deg": -105.25902426343727,
      "height_km": 1220.4844538241032,
      "semi_major_axis_km": 7595.819783324102,
      "eccentricity": 0.0001864,
      "inclination_deg": 87.8935,
      "raan_deg": 30.693,
      "arg_perigee_deg": 86.581,
      "mean_anomaly_deg": 273.5531,
      "mean_motion_rev_day": 13.11416923
    },
    {
      "epoch": "2026-04-30T11:01:41.904192Z",
      "apogee_km": 1219.101867819385,
      "perigee_km": 1216.264980807313,
      "latitude_deg": 5.342137429138766e-05,
      "longitude_deg": 6.7261488298928445,
      "height_km": 1220.4835334584773,
      "semi_major_axis_km": 7595.820424313349,
      "eccentricity": 0.00018674,
      "inclination_deg": 87.8935,
      "raan_deg": 30.5567,
      "arg_perigee_deg": 86.5247,
      "mean_anomaly_deg": 273.6095,
      "mean_motion_rev_day": 13.11416757
    }
  ]
}